[{"OBJECT_NAME":"KUIPER-00008","OBJECT_ID":"2025-088A","EPOCH":"2026-03-03T12:00:00.998784","MEAN_MOTION":14.94404987,"ECCENTRICITY":0.0009223,"INCLINATION":51.8924,"RA_OF_ASC_NODE":115.2792,"ARG_OF_PERICENTER":74.7475,"MEAN_ANOMALY":192.7106,"EPHEMERIS_TYPE":0,"CLASSIFICATION_TYPE":"U","NORAD_CAT_ID":63724,"ELEMENT_SET_NO":999,"REV_AT_EPOCH":521,"BSTAR":-0.15262,"MEAN_MOTION_DOT":-0.01532264,"MEAN_MOTION_DDOT":0},{"OBJECT_NAME":"KUIPER-00009","OBJECT_ID":"2025-088B","EPOCH":"2026-03-03T12:03:48.268800","MEAN_MOTION":14.79912441,"ECCENTRICITY":0.0007955,"INCLINATION":51.904,"RA_OF_ASC_NODE":133.9977,"ARG_OF_PERICENTER":75.4496,"MEAN_ANOMALY":284.7348,"EPHEMERIS_TYPE":0,"CLASSIFICATION_TYPE":"U","NORAD_CAT_ID":63725,"ELEMENT_SET_NO":999,"REV_AT_EPOCH":4686,"BSTAR":-0.00090431,"MEAN_MOTION_DOT":-7.11e-5,"MEAN_MOTION_DDOT":0},{"OBJECT_NAME":"KUIPER-00010","OBJECT_ID":"2025-088C","EPOCH":"2026-03-03T10:15:23.972256","MEAN_MOTION":14.79933906,"ECCENTRICITY":6.13e-5,"INCLINATION":51.9011,"RA_OF_ASC_NODE":110.7823,"ARG_OF_PERICENTER":97.2903,"MEAN_ANOMALY":262.8129,"EPHEMERIS_TYPE":0,"CLASSIFICATION_TYPE":"U","NORAD_CAT_ID":63726,"ELEMENT_SET_NO":999,"REV_AT_EPOCH":4680,"BSTAR":6.1118e-6,"MEAN_MOTION_DOT":-1.75e-6,"MEAN_MOTION_DDOT":0},{"OBJECT_NAME":"KUIPER-00011","OBJECT_ID":"2025-088D","EPOCH":"2026-03-03T10:51:54.265824","MEAN_MOTION":14.80027083,"ECCENTRICITY":4.06e-5,"INCLINATION":51.8997,"RA_OF_ASC_NODE":118.2344,"ARG_OF_PERICENTER":59.2594,"MEAN_ANOMALY":300.8408,"EPHEMERIS_TYPE":0,"CLASSIFICATION_TYPE":"U","NORAD_CAT_ID":63727,"ELEMENT_SET_NO":999,"REV_AT_EPOCH":4683,"BSTAR":0.00069755,"MEAN_MOTION_DOT":5.112e-5,"MEAN_MOTION_DDOT":0},{"OBJECT_NAME":"KUIPER-00012","OBJECT_ID":"2025-088E","EPOCH":"2026-03-03T12:00:00.998784","MEAN_MOTION":14.80194561,"ECCENTRICITY":9.12e-5,"INCLINATION":51.8996,"RA_OF_ASC_NODE":102.9537,"ARG_OF_PERICENTER":55.582,"MEAN_ANOMALY":288.0996,"EPHEMERIS_TYPE":0,"CLASSIFICATION_TYPE":"U","NORAD_CAT_ID":63728,"ELEMENT_SET_NO":999,"REV_AT_EPOCH":367,"BSTAR":0.0010468,"MEAN_MOTION_DOT":7.818e-5,"MEAN_MOTION_DDOT":0},{"OBJECT_NAME":"KUIPER-00013","OBJECT_ID":"2025-088F","EPOCH":"2026-03-03T12:02:24.851328","MEAN_MOTION":14.79794982,"ECCENTRICITY":0.0002597,"INCLINATION":51.9004,"RA_OF_ASC_NODE":135.4584,"ARG_OF_PERICENTER":31.5611,"MEAN_ANOMALY":328.5507,"EPHEMERIS_TYPE":0,"CLASSIFICATION_TYPE":"U","NORAD_CAT_ID":63729,"ELEMENT_SET_NO":999,"REV_AT_EPOCH":4665,"BSTAR":-0.00042338,"MEAN_MOTION_DOT":-3.437e-5,"MEAN_MOTION_DDOT":0},{"OBJECT_NAME":"KUIPER-00014","OBJECT_ID":"2025-088G","EPOCH":"2026-03-03T11:59:52.240416","MEAN_MOTION":14.79982547,"ECCENTRICITY":4.05e-5,"INCLINATION":51.9013,"RA_OF_ASC_NODE":136.438,"ARG_OF_PERICENTER":17.5183,"MEAN_ANOMALY":342.5794,"EPHEMERIS_TYPE":0,"CLASSIFICATION_TYPE":"U","NORAD_CAT_ID":63730,"ELEMENT_SET_NO":999,"REV_AT_EPOCH":4645,"BSTAR":0.00087072,"MEAN_MOTION_DOT":6.431e-5,"MEAN_MOTION_DDOT":0},{"OBJECT_NAME":"KUIPER-00015","OBJECT_ID":"2025-088H","EPOCH":"2026-03-03T10:59:56.466816","MEAN_MOTION":14.83571974,"ECCENTRICITY":0.0009691,"INCLINATION":51.8988,"RA_OF_ASC_NODE":146.0502,"ARG_OF_PERICENTER":54.8746,"MEAN_ANOMALY":305.3125,"EPHEMERIS_TYPE":0,"CLASSIFICATION_TYPE":"U","NORAD_CAT_ID":63731,"ELEMENT_SET_NO":999,"REV_AT_EPOCH":4677,"BSTAR":0.0009003,"MEAN_MOTION_DOT":7.272e-5,"MEAN_MOTION_DDOT":0},{"OBJECT_NAME":"KUIPER-00016","OBJECT_ID":"2025-088J","EPOCH":"2026-03-02T11:37:25.552992","MEAN_MOTION":14.79884692,"ECCENTRICITY":0.0006523,"INCLINATION":51.8997,"RA_OF_ASC_NODE":143.4592,"ARG_OF_PERICENTER":55.0941,"MEAN_ANOMALY":305.0633,"EPHEMERIS_TYPE":0,"CLASSIFICATION_TYPE":"U","NORAD_CAT_ID":63732,"ELEMENT_SET_NO":999,"REV_AT_EPOCH":4626,"BSTAR":0.00074135,"MEAN_MOTION_DOT":5.429e-5,"MEAN_MOTION_DDOT":0},{"OBJECT_NAME":"KUIPER-00018","OBJECT_ID":"2025-088K","EPOCH":"2026-03-03T12:00:00.998784","MEAN_MOTION":14.80176091,"ECCENTRICITY":0.0003573,"INCLINATION":51.9015,"RA_OF_ASC_NODE":127.9385,"ARG_OF_PERICENTER":80.8615,"MEAN_ANOMALY":227.6115,"EPHEMERIS_TYPE":0,"CLASSIFICATION_TYPE":"U","NORAD_CAT_ID":63733,"ELEMENT_SET_NO":999,"REV_AT_EPOCH":281,"BSTAR":0.0014913,"MEAN_MOTION_DOT":0.00011232,"MEAN_MOTION_DDOT":0},{"OBJECT_NAME":"KUIPER-00019","OBJECT_ID":"2025-088L","EPOCH":"2026-03-03T09:01:06.914208","MEAN_MOTION":14.79941018,"ECCENTRICITY":0.0001366,"INCLINATION":51.9,"RA_OF_ASC_NODE":127.0162,"ARG_OF_PERICENTER":122.4755,"MEAN_ANOMALY":237.6339,"EPHEMERIS_TYPE":0,"CLASSIFICATION_TYPE":"U","NORAD_CAT_ID":63734,"ELEMENT_SET_NO":999,"REV_AT_EPOCH":4657,"BSTAR":-5.348e-5,"MEAN_MOTION_DOT":-6.29e-6,"MEAN_MOTION_DDOT":0},{"OBJECT_NAME":"KUIPER-00020","OBJECT_ID":"2025-088M","EPOCH":"2026-03-03T08:55:42.453696","MEAN_MOTION":14.79882121,"ECCENTRICITY":0.00067,"INCLINATION":51.9017,"RA_OF_ASC_NODE":131.0253,"ARG_OF_PERICENTER":65.1605,"MEAN_ANOMALY":295.0053,"EPHEMERIS_TYPE":0,"CLASSIFICATION_TYPE":"U","NORAD_CAT_ID":63735,"ELEMENT_SET_NO":999,"REV_AT_EPOCH":4672,"BSTAR":0.00042016,"MEAN_MOTION_DOT":2.979e-5,"MEAN_MOTION_DDOT":0},{"OBJECT_NAME":"KUIPER-00021","OBJECT_ID":"2025-088N","EPOCH":"2026-03-03T10:30:38.163744","MEAN_MOTION":14.7996135,"ECCENTRICITY":0.0003313,"INCLINATION":51.9009,"RA_OF_ASC_NODE":131.7309,"ARG_OF_PERICENTER":71.8915,"MEAN_ANOMALY":288.2408,"EPHEMERIS_TYPE":0,"CLASSIFICATION_TYPE":"U","NORAD_CAT_ID":63736,"ELEMENT_SET_NO":999,"REV_AT_EPOCH":4655,"BSTAR":0.001147,"MEAN_MOTION_DOT":8.54e-5,"MEAN_MOTION_DDOT":0},{"OBJECT_NAME":"KUIPER-00023","OBJECT_ID":"2025-088P","EPOCH":"2026-03-03T10:28:59.558016","MEAN_MOTION":14.79950375,"ECCENTRICITY":0.000836,"INCLINATION":51.9008,"RA_OF_ASC_NODE":133.1958,"ARG_OF_PERICENTER":81.8059,"MEAN_ANOMALY":278.3852,"EPHEMERIS_TYPE":0,"CLASSIFICATION_TYPE":"U","NORAD_CAT_ID":63737,"ELEMENT_SET_NO":999,"REV_AT_EPOCH":4683,"BSTAR":-0.0016371,"MEAN_MOTION_DOT":-0.00012693,"MEAN_MOTION_DDOT":0},{"OBJECT_NAME":"KUIPER-00024","OBJECT_ID":"2025-088Q","EPOCH":"2026-03-03T10:48:29.179872","MEAN_MOTION":14.79933464,"ECCENTRICITY":7.48e-5,"INCLINATION":51.9044,"RA_OF_ASC_NODE":120.7046,"ARG_OF_PERICENTER":77.8209,"MEAN_ANOMALY":282.2837,"EPHEMERIS_TYPE":0,"CLASSIFICATION_TYPE":"U","NORAD_CAT_ID":63738,"ELEMENT_SET_NO":999,"REV_AT_EPOCH":4713,"BSTAR":0.000142,"MEAN_MOTION_DOT":8.62e-6,"MEAN_MOTION_DDOT":0},{"OBJECT_NAME":"KUIPER-00025","OBJECT_ID":"2025-088R","EPOCH":"2026-03-03T10:18:44.165376","MEAN_MOTION":14.83449957,"ECCENTRICITY":2.52e-5,"INCLINATION":51.9028,"RA_OF_ASC_NODE":129.1897,"ARG_OF_PERICENTER":53.5576,"MEAN_ANOMALY":306.5411,"EPHEMERIS_TYPE":0,"CLASSIFICATION_TYPE":"U","NORAD_CAT_ID":63739,"ELEMENT_SET_NO":999,"REV_AT_EPOCH":4687,"BSTAR":0.00018688,"MEAN_MOTION_DOT":1.322e-5,"MEAN_MOTION_DDOT":0},{"OBJECT_NAME":"KUIPER-00027","OBJECT_ID":"2025-088S","EPOCH":"2026-03-03T09:07:19.352640","MEAN_MOTION":14.79914815,"ECCENTRICITY":8.05e-5,"INCLINATION":51.902,"RA_OF_ASC_NODE":123.4863,"ARG_OF_PERICENTER":107.6641,"MEAN_ANOMALY":252.4409,"EPHEMERIS_TYPE":0,"CLASSIFICATION_TYPE":"U","NORAD_CAT_ID":63740,"ELEMENT_SET_NO":999,"REV_AT_EPOCH":4668,"BSTAR":5.2169e-5,"MEAN_MOTION_DOT":1.76e-6,"MEAN_MOTION_DDOT":0}]
