KUIPER-00008            
1 63724U 25088A   26062.50001156 -.01532264  00000+0 -15262+0 0  9998
2 63724  51.8924 115.2792 0009223  74.7475 192.7106 14.94404987  5214
KUIPER-00009            
1 63725U 25088B   26062.50264200 -.00007110  00000+0 -90431-3 0  9991
2 63725  51.9040 133.9977 0007955  75.4496 284.7348 14.79912441 46866
KUIPER-00010            
1 63726U 25088C   26062.42736079 -.00000175  00000+0  61118-5 0  9996
2 63726  51.9011 110.7823 0000613  97.2903 262.8129 14.79933906 46804
KUIPER-00011            
1 63727U 25088D   26062.45271141  .00005112  00000+0  69755-3 0  9992
2 63727  51.8997 118.2344 0000406  59.2594 300.8408 14.80027083 46830
KUIPER-00012            
1 63728U 25088E   26062.50001156  .00007818  00000+0  10468-2 0  9997
2 63728  51.8996 102.9537 0000912  55.5820 288.0996 14.80194561  3677
KUIPER-00013            
1 63729U 25088F   26062.50167652 -.00003437  00000+0 -42338-3 0  9999
2 63729  51.9004 135.4584 0002597  31.5611 328.5507 14.79794982 46659
KUIPER-00014            
1 63730U 25088G   26062.49991019  .00006431  00000+0  87072-3 0  9990
2 63730  51.9013 136.4380 0000405  17.5183 342.5794 14.79982547 46458
KUIPER-00015            
1 63731U 25088H   26062.45829244  .00007272  00000+0  90030-3 0  9999
2 63731  51.8988 146.0502 0009691  54.8746 305.3125 14.83571974 46770
KUIPER-00016            
1 63732U 25088J   26061.48432353  .00005429  00000+0  74135-3 0  9993
2 63732  51.8997 143.4592 0006523  55.0941 305.0633 14.79884692 46266
KUIPER-00018            
1 63733U 25088K   26062.50001156  .00011232  00000+0  14913-2 0  9997
2 63733  51.9015 127.9385 0003573  80.8615 227.6115 14.80176091  2818
KUIPER-00019            
1 63734U 25088L   26062.37577447 -.00000629  00000+0 -53480-4 0  9998
2 63734  51.9000 127.0162 0001366 122.4755 237.6339 14.79941018 46570
KUIPER-00020            
1 63735U 25088M   26062.37201914  .00002979  00000+0  42016-3 0  9992
2 63735  51.9017 131.0253 0006700  65.1605 295.0053 14.79882121 46726
KUIPER-00021            
1 63736U 25088N   26062.43794171  .00008540  00000+0  11470-2 0  9991
2 63736  51.9009 131.7309 0003313  71.8915 288.2408 14.79961350 46553
KUIPER-00023            
1 63737U 25088P   26062.43680044 -.00012693  00000+0 -16371-2 0  9996
2 63737  51.9008 133.1958 0008360  81.8059 278.3852 14.79950375 46835
KUIPER-00024            
1 63738U 25088Q   26062.45033773  .00000862  00000+0  14200-3 0  9993
2 63738  51.9044 120.7046 0000748  77.8209 282.2837 14.79933464 47131
KUIPER-00025            
1 63739U 25088R   26062.42967784  .00001322  00000+0  18688-3 0  9995
2 63739  51.9028 129.1897 0000252  53.5576 306.5411 14.83449957 46871
KUIPER-00027            
1 63740U 25088S   26062.38008510  .00000176  00000+0  52169-4 0  9994
2 63740  51.9020 123.4863 0000805 107.6641 252.4409 14.79914815 46683
